{
  "type": "FeatureCollection",
  "features": [
    {
      "type": "Feature",
      "properties": {
        "norad_id": 36744,
        "name": "COMS 1",
        "group": "weather",
        "lat": 4.27042080809918,
        "lon": 178.70808256678572,
        "alt_km": 35785.86393368458,
        "timestamp": "2025-12-16T21:38:56.811649+00:00",
        "meta_object_name": "COMS 1",
        "meta_object_id": "2010-032A",
        "meta_epoch": "2025-12-15T13:59:49.717248",
        "meta_mean_motion": 1.00271913,
        "meta_eccentricity": 8.134e-05,
        "meta_inclination": 4.3476,
        "meta_ra_of_asc_node": 77.9671,
        "meta_arg_of_pericenter": 193.8202,
        "meta_mean_anomaly": 150.8255,
        "meta_ephemeris_type": 0,
        "meta_classification_type": "U",
        "meta_norad_cat_id": 36744,
        "meta_element_set_no": 999,
        "meta_rev_at_epoch": 4924,
        "meta_bstar": 0,
        "meta_mean_motion_dot": -3.25e-06,
        "meta_mean_motion_ddot": 0,
        "tle_line1": "1 36744U 10032A   25349.58321432 -.00000325  00000+0  00000+0 0  9990",
        "tle_line2": "2 36744   4.3476  77.9671 0000813 193.8202 150.8255  1.00271913 49243"
      },
      "geometry": {
        "type": "Point",
        "coordinates": [
          178.70808256678572,
          4.27042080809918
        ]
      }
    },
    {
      "type": "Feature",
      "properties": {
        "norad_id": 37214,
        "name": "FENGYUN 3B",
        "group": "weather",
        "lat": -17.274816844703313,
        "lon": 33.730746339498054,
        "alt_km": 832.0804226697419,
        "timestamp": "2025-12-16T21:38:56.811661+00:00",
        "meta_object_name": "FENGYUN 3B",
        "meta_object_id": "2010-059A",
        "meta_epoch": "2025-12-16T08:25:57.578304",
        "meta_mean_motion": 14.14789529,
        "meta_eccentricity": 0.00219148,
        "meta_inclination": 98.991,
        "meta_ra_of_asc_node": 30.3541,
        "meta_arg_of_pericenter": 347.5763,
        "meta_mean_anomaly": 71.8416,
        "meta_ephemeris_type": 0,
        "meta_classification_type": "U",
        "meta_norad_cat_id": 37214,
        "meta_element_set_no": 999,
        "meta_rev_at_epoch": 78157,
        "meta_bstar": -4.7157296e-05,
        "meta_mean_motion_dot": -1.37e-06,
        "meta_mean_motion_ddot": 0,
        "tle_line1": "1 37214U 10059A   25350.35136086 -.00000137  00000+0 -47157-4 0  9999",
        "tle_line2": "2 37214  98.9910  30.3541 0021914 347.5763  71.8416 14.14789529781578"
      },
      "geometry": {
        "type": "Point",
        "coordinates": [
          33.730746339498054,
          -17.274816844703313
        ]
      }
    },
    {
      "type": "Feature",
      "properties": {
        "norad_id": 37849,
        "name": "SUOMI NPP",
        "group": "weather",
        "lat": -71.90034475960717,
        "lon": 79.99457426934285,
        "alt_km": 835.5940150243814,
        "timestamp": "2025-12-16T21:38:56.811673+00:00",
        "meta_object_name": "SUOMI NPP",
        "meta_object_id": "2011-061A",
        "meta_epoch": "2025-12-16T08:36:51.320448",
        "meta_mean_motion": 14.19515267,
        "meta_eccentricity": 0.00023522,
        "meta_inclination": 98.7777,
        "meta_ra_of_asc_node": 287.6679,
        "meta_arg_of_pericenter": 113.7779,
        "meta_mean_anomaly": 246.3644,
        "meta_ephemeris_type": 0,
        "meta_classification_type": "U",
        "meta_norad_cat_id": 37849,
        "meta_element_set_no": 999,
        "meta_rev_at_epoch": 73250,
        "meta_bstar": 6.0452682e-05,
        "meta_mean_motion_dot": 8.3e-07,
        "meta_mean_motion_ddot": 0,
        "tle_line1": "1 37849U 11061A   25350.35892732  .00000083  00000+0  60453-4 0  9996",
        "tle_line2": "2 37849  98.7777 287.6679 0002352 113.7779 246.3644 14.19515267732507"
      },
      "geometry": {
        "type": "Point",
        "coordinates": [
          79.99457426934285,
          -71.90034475960717
        ]
      }
    },
    {
      "type": "Feature",
      "properties": {
        "norad_id": 38552,
        "name": "METEOSAT-10 (MSG-3)",
        "group": "weather",
        "lat": -0.783756243316071,
        "lon": 50.78456723745725,
        "alt_km": 35784.66870670711,
        "timestamp": "2025-12-16T21:38:56.811691+00:00",
        "meta_object_name": "METEOSAT-10 (MSG-3)",
        "meta_object_id": "2012-035B",
        "meta_epoch": "2025-12-16T01:22:19.860384",
        "meta_mean_motion": 1.00275935,
        "meta_eccentricity": 7.092e-05,
        "meta_inclination": 4.2364,
        "meta_ra_of_asc_node": 61.7162,
        "meta_arg_of_pericenter": 265.3862,
        "meta_mean_anomaly": 138.6539,
        "meta_ephemeris_type": 0,
        "meta_classification_type": "U",
        "meta_norad_cat_id": 38552,
        "meta_element_set_no": 999,
        "meta_rev_at_epoch": 4902,
        "meta_bstar": 0,
        "meta_mean_motion_dot": 1.5e-07,
        "meta_mean_motion_ddot": 0,
        "tle_line1": "1 38552U 12035B   25350.05717431  .00000015  00000+0  00000+0 0  9991",
        "tle_line2": "2 38552   4.2364  61.7162 0000709 265.3862 138.6539  1.00275935 49027"
      },
      "geometry": {
        "type": "Point",
        "coordinates": [
          50.78456723745725,
          -0.783756243316071
        ]
      }
    },
    {
      "type": "Feature",
      "properties": {
        "norad_id": 38771,
        "name": "METOP-B",
        "group": "weather",
        "lat": 44.658350587307964,
        "lon": -130.52822882377538,
        "alt_km": 814.5529596952802,
        "timestamp": "2025-12-16T21:38:56.811702+00:00",
        "meta_object_name": "METOP-B",
        "meta_object_id": "2012-049A",
        "meta_epoch": "2025-12-16T05:48:48.012768",
        "meta_mean_motion": 14.21409672,
        "meta_eccentricity": 0.0003036,
        "meta_inclination": 98.6796,
        "meta_ra_of_asc_node": 40.1416,
        "meta_arg_of_pericenter": 136.633,
        "meta_mean_anomaly": 223.5087,
        "meta_ephemeris_type": 0,
        "meta_classification_type": "U",
        "meta_norad_cat_id": 38771,
        "meta_element_set_no": 999,
        "meta_rev_at_epoch": 68727,
        "meta_bstar": 8.4678921e-05,
        "meta_mean_motion_dot": 1.41e-06,
        "meta_mean_motion_ddot": 0,
        "tle_line1": "1 38771U 12049A   25350.24222237  .00000141  00000+0  84679-4 0  9994",
        "tle_line2": "2 38771  98.6796  40.1416 0003036 136.6330 223.5087 14.21409672687276"
      },
      "geometry": {
        "type": "Point",
        "coordinates": [
          -130.52822882377538,
          44.658350587307964
        ]
      }
    },
    {
      "type": "Feature",
      "properties": {
        "norad_id": 39216,
        "name": "INSAT-3D",
        "group": "weather",
        "lat": 1.441754698383164,
        "lon": 179.9939076465323,
        "alt_km": 35785.21679678635,
        "timestamp": "2025-12-16T21:38:56.811714+00:00",
        "meta_object_name": "INSAT-3D",
        "meta_object_id": "2013-038B",
        "meta_epoch": "2025-12-16T07:07:28.670304",
        "meta_mean_motion": 1.00268466,
        "meta_eccentricity": 0.00012596,
        "meta_inclination": 1.4537,
        "meta_ra_of_asc_node": 84.959,
        "meta_arg_of_pericenter": 166.4083,
        "meta_mean_anomaly": 70.1917,
        "meta_ephemeris_type": 0,
        "meta_classification_type": "U",
        "meta_norad_cat_id": 39216,
        "meta_element_set_no": 999,
        "meta_rev_at_epoch": 4524,
        "meta_bstar": 0,
        "meta_mean_motion_dot": -3.17e-06,
        "meta_mean_motion_ddot": 0,
        "tle_line1": "1 39216U 13038B   25350.29685961 -.00000317  00000+0  00000+0 0  9997",
        "tle_line2": "2 39216   1.4537  84.9590 0001259 166.4083  70.1917  1.00268466 45246"
      },
      "geometry": {
        "type": "Point",
        "coordinates": [
          179.9939076465323,
          1.441754698383164
        ]
      }
    },
    {
      "type": "Feature",
      "properties": {
        "norad_id": 39260,
        "name": "FENGYUN 3C",
        "group": "weather",
        "lat": -62.59437271670136,
        "lon": -14.905558830309776,
        "alt_km": 851.0686869555175,
        "timestamp": "2025-12-16T21:38:56.811725+00:00",
        "meta_object_name": "FENGYUN 3C",
        "meta_object_id": "2013-052A",
        "meta_epoch": "2025-12-16T08:22:51.521952",
        "meta_mean_motion": 14.15697436,
        "meta_eccentricity": 0.00144744,
        "meta_inclination": 98.4767,
        "meta_ra_of_asc_node": 327.8524,
        "meta_arg_of_pericenter": 185.4055,
        "meta_mean_anomaly": 174.6966,
        "meta_ephemeris_type": 0,
        "meta_classification_type": "U",
        "meta_norad_cat_id": 39260,
        "meta_element_set_no": 999,
        "meta_rev_at_epoch": 63269,
        "meta_bstar": 7.8550233e-05,
        "meta_mean_motion_dot": 1.13e-06,
        "meta_mean_motion_ddot": 0,
        "tle_line1": "1 39260U 13052A   25350.34920743  .00000113  00000+0  78550-4 0  9991",
        "tle_line2": "2 39260  98.4767 327.8524 0014474 185.4055 174.6966 14.15697436632693"
      },
      "geometry": {
        "type": "Point",
        "coordinates": [
          -14.905558830309776,
          -62.59437271670136
        ]
      }
    }
  ]
}